GLOBALSTAR M094         
1 39074U 13005C   25194.78256305 -.00000095  00000+0  47675-4 0  9996
2 39074  51.9956 101.1413 0000705  27.4407 332.6497 12.62262751575732
GLOBALSTAR M096         
1 39075U 13005D   25194.87487252 -.00000108  00000+0 -26337-4 0  9992
2 39075  52.0059 149.3948 0000443 352.9588   7.1272 12.62265588574668
GLOBALSTAR M078         
1 39076U 13005E   25194.84853555 -.00000098  00000+0  30105-4 0  9998
2 39076  51.9851 233.9515 0000813 220.2349 139.8457 12.62259650573288
GLOBALSTAR M095         
1 39077U 13005F   25194.63713478 -.00000098  00000+0  30873-4 0  9997
2 39077  51.9777 231.7769 0000387 246.5715 113.5111 12.62268250573111
GLOBALSTAR M087         
1 52888U 22064A   25194.89267065 -.00000106  00000+0 -11216-4 0  9992
2 52888  52.0013  12.4057 0001088 103.2692 256.8297 12.63725716148410
